OBJECT_NAME,OBJECT_ID,EPOCH,MEAN_MOTION,ECCENTRICITY,INCLINATION,RA_OF_ASC_NODE,ARG_OF_PERICENTER,MEAN_ANOMALY,EPHEMERIS_TYPE,CLASSIFICATION_TYPE,NORAD_CAT_ID,ELEMENT_SET_NO,REV_AT_EPOCH,BSTAR,MEAN_MOTION_DOT,MEAN_MOTION_DDOT
STARLINK-35988,2025-270AD,2026-06-09T12:49:51.741696,15.27596876,.0003131,43.0019,257.3799,273.5072,86.5421,0,U,66615,999,3159,.53837E-3,.14591E-3,0
STARLINK-35391,2025-270AE,2026-06-08T23:21:18.813024,15.27601857,.00013353,43.0056,260.9020,259.3595,100.7106,0,U,66616,999,3177,.64097433E-3,.17429E-3,0
STARLINK-35940,2025-271A,2026-06-09T01:22:34.982112,15.30208913,.00014342,53.1576,75.6756,95.9244,264.1920,0,U,66617,999,3155,.53547828E-3,.15538E-3,0
STARLINK-35970,2025-271B,2026-06-09T11:24:43.264800,15.30215960,.0000987,53.1607,73.2951,87.5460,272.5654,0,U,66618,999,3162,.47086E-3,.13619E-3,0
STARLINK-35951,2025-271C,2026-06-09T10:52:58.233792,15.30184076,.0001635,53.1588,73.8803,108.4486,251.6693,0,U,66619,999,3161,.36161E-3,.1036E-3,0
STARLINK-35936,2025-271D,2026-06-09T11:08:09.982752,15.30225302,.0001519,53.1581,73.9453,100.6233,259.4939,0,U,66620,999,3161,.62486E-3,.18207E-3,0
STARLINK-35847,2025-271E,2026-06-09T10:56:00.732192,15.30211228,.0001207,53.1586,73.8821,108.2570,251.8562,0,U,66621,999,3161,.75354E-3,.22032E-3,0
STARLINK-35950,2025-271F,2026-06-09T10:49:56.002368,15.30211781,.0001102,53.1573,73.8607,53.9963,306.1139,0,U,66622,999,3161,.51638E-3,.14971E-3,0
STARLINK-35920,2025-271G,2026-06-09T01:17:05.620992,15.34408021,.00013172,53.1576,73.5259,91.0624,269.0530,0,U,66623,999,3158,.6302331E-3,.20982E-3,0
STARLINK-35927,2025-271H,2026-06-09T11:26:14.548128,15.30224349,.0001481,53.1611,73.3064,102.3966,257.7200,0,U,66624,999,3162,.71605E-3,.20924E-3,0
STARLINK-35929,2025-271J,2026-06-09T00:55:52.885920,15.34415032,.00008113,53.1582,73.4338,83.6131,276.4964,0,U,66625,999,3157,.61498122E-3,.20469E-3,0
STARLINK-35902,2025-271K,2026-06-09T11:05:07.949184,15.30216078,.0001313,53.1581,73.9264,69.5465,290.5676,0,U,66626,999,3161,.55581E-3,.16146E-3,0
STARLINK-35904,2025-271L,2026-06-09T01:16:30.157248,15.30210773,.00012018,53.1575,75.6460,95.3698,264.7440,0,U,66627,999,3151,.59812439E-3,.17403E-3,0
STARLINK-35862,2025-271M,2026-06-09T10:54:59.045184,15.34424118,.0003661,53.1557,71.7576,259.4636,100.5954,0,U,66628,999,3164,.76531E-3,.25592E-3,0
STARLINK-35949,2025-271P,2026-06-09T01:04:58.247904,15.34415239,.00011961,53.1577,73.4691,97.3233,262.7906,0,U,66630,999,3158,.93586037E-3,.31391E-3,0
STARLINK-35965,2025-271Q,2026-06-07T06:40:21.089568,15.34419347,.00013039,53.1589,81.6387,85.8625,274.2527,0,U,66631,999,3130,.10167566E-2,.34154E-3,0
STARLINK-35973,2025-271R,2026-06-09T10:45:55.317888,15.34399043,.0001207,53.1589,71.7238,93.3885,266.7256,0,U,66632,999,3159,.98678E-3,.3311E-3,0
STARLINK-35948,2025-271S,2026-06-09T10:48:56.966112,15.34427248,.0000897,53.1576,71.7347,73.7434,286.3667,0,U,66633,999,3164,.89109E-3,.29877E-3,0
STARLINK-35967,2025-271T,2026-06-09T01:08:00.119904,15.34408673,.00013234,53.1583,73.4874,98.8659,261.2494,0,U,66634,999,3153,.58931932E-3,.19592E-3,0
STARLINK-35955,2025-271U,2026-06-09T01:21:03.767904,15.30207259,.00010566,53.1575,75.6622,76.4312,283.6807,0,U,66635,999,3155,.52896396E-3,.15343E-3,0
STARLINK-35968,2025-271V,2026-06-09T10:54:31.404096,15.30212133,.0001788,53.1613,73.8879,116.0222,244.0963,0,U,66636,999,3161,.9483E-3,.27843E-3,0
STARLINK-35953,2025-271W,2026-06-09T10:51:58.692960,15.34393523,.0000987,53.1582,71.7488,104.9477,255.1635,0,U,66637,999,3164,.65616E-3,.21853E-3,0
STARLINK-35972,2025-271X,2026-06-09T11:03:36.796320,15.30208901,.0001241,53.1566,73.9169,73.1360,286.9777,0,U,66638,999,3161,.43251E-3,.12476E-3,0
STARLINK-35908,2025-271Y,2026-06-09T01:14:58.932672,15.30211072,.00012626,53.1587,75.6357,97.7204,262.3940,0,U,66639,999,3155,.52982977E-3,.15371E-3,0
STARLINK-35921,2025-271Z,2026-06-09T11:23:11.643648,15.30235572,.0001184,53.1607,73.2929,89.0528,271.0608,0,U,66640,999,3162,.6863E-3,.20044E-3,0
STARLINK-35923,2025-271AA,2026-06-09T11:15:45.986400,15.30219466,.0001126,53.1602,73.9677,83.2118,276.9011,0,U,66641,999,3161,.66836E-3,.19499E-3,0
STARLINK-35926,2025-271AB,2026-06-09T10:59:03.202080,15.30214750,.0001465,53.1588,73.8965,85.8898,274.2270,0,U,66642,999,3157,.56855E-3,.16525E-3,0
STARLINK-35918,2025-271AC,2026-06-06T15:20:33.101664,15.34488806,.00008375,53.1589,84.7604,84.2521,275.8577,0,U,66643,999,3121,.18193E-2,.61774E-3,0
STARLINK-35938,2025-271AD,2026-06-07T12:09:35.011008,15.30266325,.00007032,53.1593,83.0509,113.1743,246.9332,0,U,66644,999,3131,.90491377E-3,.26593E-3,0
COSMOS 2597 (RODNIK-S 22),2025-273A,2026-06-09T10:21:58.290624,12.42899320,.001073,82.4983,175.3435,230.3209,129.6925,0,U,66647,999,2433,.19164E-3,.36E-6,0
