STARLINK-35988          
1 66615U 25270AD  26160.53462664  .00014591  00000+0  53837-3 0  9999
2 66615  43.0019 257.3799 0003131 273.5072  86.5421 15.27596876 31599
STARLINK-35391          
1 66616U 25270AE  26159.97313441  .00017429  00000+0  64097-3 0  9997
2 66616  43.0056 260.9020 0001335 259.3595 100.7106 15.27601857 31779
STARLINK-35940          
1 66617U 25271A   26160.05734933  .00015538  00000+0  53548-3 0  9991
2 66617  53.1576  75.6756 0001434  95.9244 264.1920 15.30208913 31556
STARLINK-35970          
1 66618U 25271B   26160.47550075  .00013619  00000+0  47086-3 0  9999
2 66618  53.1607  73.2951 0000987  87.5460 272.5654 15.30215960 31627
STARLINK-35951          
1 66619U 25271C   26160.45345178  .00010360  00000+0  36161-3 0  9996
2 66619  53.1588  73.8803 0001635 108.4486 251.6693 15.30184076 31613
STARLINK-35936          
1 66620U 25271D   26160.46400443  .00018207  00000+0  62486-3 0  9993
2 66620  53.1581  73.9453 0001519 100.6233 259.4939 15.30225302 31612
STARLINK-35847          
1 66621U 25271E   26160.45556403  .00022032  00000+0  75354-3 0  9990
2 66621  53.1586  73.8821 0001207 108.2570 251.8562 15.30211228 31618
STARLINK-35950          
1 66622U 25271F   26160.45134262  .00014971  00000+0  51638-3 0  9998
2 66622  53.1573  73.8607 0001102  53.9963 306.1139 15.30211781 31611
STARLINK-35920          
1 66623U 25271G   26160.05353728  .00020982  00000+0  63023-3 0  9995
2 66623  53.1576  73.5259 0001317  91.0624 269.0530 15.34408021 31587
STARLINK-35927          
1 66624U 25271H   26160.47655727  .00020924  00000+0  71605-3 0  9997
2 66624  53.1611  73.3064 0001481 102.3966 257.7200 15.30224349 31625
STARLINK-35929          
1 66625U 25271J   26160.03880655  .00020469  00000+0  61498-3 0  9993
2 66625  53.1582  73.4338 0000811  83.6131 276.4964 15.34415032 31573
STARLINK-35902          
1 66626U 25271K   26160.46189756  .00016146  00000+0  55581-3 0  9998
2 66626  53.1581  73.9264 0001313  69.5465 290.5676 15.30216078 31614
STARLINK-35904          
1 66627U 25271L   26160.05312682  .00017403  00000+0  59812-3 0  9998
2 66627  53.1575  75.6460 0001201  95.3698 264.7440 15.30210773 31513
STARLINK-35862          
1 66628U 25271M   26160.45485006  .00025592  00000+0  76531-3 0  9999
2 66628  53.1557  71.7576 0003661 259.4636 100.5954 15.34424118 31641
STARLINK-35949          
1 66630U 25271P   26160.04511861  .00031391  00000+0  93586-3 0  9999
2 66630  53.1577  73.4691 0001196  97.3233 262.7906 15.34415239 31581
STARLINK-35965          
1 66631U 25271Q   26158.27802187  .00034154  00000+0  10168-2 0  9990
2 66631  53.1589  81.6387 0001303  85.8625 274.2527 15.34419347 31306
STARLINK-35973          
1 66632U 25271R   26160.44855692  .00033110  00000+0  98678-3 0  9996
2 66632  53.1589  71.7238 0001207  93.3885 266.7256 15.34399043 31593
STARLINK-35948          
1 66633U 25271S   26160.45065933  .00029877  00000+0  89109-3 0  9993
2 66633  53.1576  71.7347 0000897  73.7434 286.3667 15.34427248 31646
STARLINK-35967          
1 66634U 25271T   26160.04722361  .00019592  00000+0  58932-3 0  9997
2 66634  53.1583  73.4874 0001323  98.8659 261.2494 15.34408673 31530
STARLINK-35955          
1 66635U 25271U   26160.05629361  .00015343  00000+0  52896-3 0  9998
2 66635  53.1575  75.6622 0001056  76.4312 283.6807 15.30207259 31559
STARLINK-35968          
1 66636U 25271V   26160.45453014  .00027843  00000+0  94830-3 0  9995
2 66636  53.1613  73.8879 0001788 116.0222 244.0963 15.30212133 31618
STARLINK-35953          
1 66637U 25271W   26160.45276265  .00021853  00000+0  65616-3 0  9992
2 66637  53.1582  71.7488 0000987 104.9477 255.1635 15.34393523 31644
STARLINK-35972          
1 66638U 25271X   26160.46084255  .00012476  00000+0  43251-3 0  9992
2 66638  53.1566  73.9169 0001241  73.1360 286.9777 15.30208901 31616
STARLINK-35908          
1 66639U 25271Y   26160.05207098  .00015371  00000+0  52983-3 0  9999
2 66639  53.1587  75.6357 0001262  97.7204 262.3940 15.30211072 31556
STARLINK-35921          
1 66640U 25271Z   26160.47444032  .00020044  00000+0  68630-3 0  9997
2 66640  53.1607  73.2929 0001184  89.0528 271.0608 15.30235572 31623
STARLINK-35923          
1 66641U 25271AA  26160.46928225  .00019499  00000+0  66836-3 0  9996
2 66641  53.1602  73.9677 0001126  83.2118 276.9011 15.30219466 31618
STARLINK-35926          
1 66642U 25271AB  26160.45767595  .00016525  00000+0  56855-3 0  9994
2 66642  53.1588  73.8965 0001465  85.8898 274.2270 15.30214750 31574
STARLINK-35918          
1 66643U 25271AC  26157.63927201  .00061774  00000+0  18193-2 0  9991
2 66643  53.1589  84.7604 0000837  84.2521 275.8577 15.34488806 31212
STARLINK-35938          
1 66644U 25271AD  26158.50665522  .00026593  00000+0  90491-3 0  9996
2 66644  53.1593  83.0509 0000703 113.1743 246.9332 15.30266325 31319
COSMOS 2597 (RODNIK-S *)
1 66647U 25273A   26160.43192466  .00000036  00000+0  19164-3 0  9990
2 66647  82.4983 175.3435 0010730 230.3209 129.6925 12.42899320 24339
